[{"OBJECT_NAME":"DAMPE","OBJECT_ID":"2015-078A","EPOCH":"2026-03-09T23:55:00.527232","MEAN_MOTION":15.30502084,"ECCENTRICITY":0.00138005,"INCLINATION":97.4588,"RA_OF_ASC_NODE":73.9866,"ARG_OF_PERICENTER":70.6942,"MEAN_ANOMALY":289.579,"EPHEMERIS_TYPE":0,"CLASSIFICATION_TYPE":"U","NORAD_CAT_ID":41173,"ELEMENT_SET_NO":999,"REV_AT_EPOCH":56937,"BSTAR":9.1158173e-5,"MEAN_MOTION_DOT":2.617e-5,"MEAN_MOTION_DDOT":0},{"OBJECT_NAME":"STARLINK-32456","OBJECT_ID":"2024-216K","EPOCH":"2026-03-09T21:24:16.987392","MEAN_MOTION":15.27578482,"ECCENTRICITY":0.00014749,"INCLINATION":43.0023,"RA_OF_ASC_NODE":255.4346,"ARG_OF_PERICENTER":293.7724,"MEAN_ANOMALY":66.2973,"EPHEMERIS_TYPE":0,"CLASSIFICATION_TYPE":"U","NORAD_CAT_ID":62041,"ELEMENT_SET_NO":999,"REV_AT_EPOCH":7390,"BSTAR":0.00093050785,"MEAN_MOTION_DOT":0.00025431,"MEAN_MOTION_DDOT":0}]
